MALLIGYONG-1            
1 58400U 23179A   24125.20355592  .00005163  00000+0  22698-3 0  9998
2 58400  97.4100  12.7172 0010935  63.9199 296.3161 15.22276060 25034
